STARLINK-6287           
1 56404U 23061AG  25284.24848189  .00001232  00000+0  10623-3 0  9998
2 56404  43.0042 276.5909 0001232 264.0306  96.0396 15.02536036134429
STARLINK-6285           
1 56405U 23061AH  25284.25403025  .00000795  00000+0  73930-4 0  9990
2 56405  43.0048 276.6348 0001226 264.0482  96.0220 15.02536406134429
STARLINK-6283           
1 56406U 23061AJ  25284.04017237  .00000206  00000+0  30299-4 0  9992
2 56406  43.0035 277.6055 0001000 274.6320  85.4408 15.02535779134398
STARLINK-6282           
1 56407U 23061AK  25284.25070033  .00001879  00000+0  15414-3 0  9997
2 56407  43.0039 276.6078 0001294 272.4669  87.6026 15.02537921134429
STARLINK-6289           
1 56408U 23061AL  25284.03240082 -.00000035  00000+0  12510-4 0  9996
2 56408  43.0036 277.5395 0001129 271.0962  88.9751 15.02534766134396
STARLINK-6241           
1 56409U 23061AM  25284.24515019 -.00000864  00000+0 -48866-4 0  9999
2 56409  43.0053 276.5698 0001444 284.2038  75.8643 15.02529440134423
STARLINK-6281           
1 56410U 23061AN  25284.03128961  .00000501  00000+0  52143-4 0  9993
2 56410  43.0041 277.5401 0000938 268.2317  91.8418 15.02538375134395
STARLINK-6279           
1 56411U 23061AP  25284.04349777  .00001346  00000+0  11466-3 0  9995
2 56411  43.0036 277.6317 0001246 275.7326  84.3374 15.02535549134391
STARLINK-6278           
1 56412U 23061AQ  25284.29163864  .00002735  00000+0  21735-3 0  9997
2 56412  43.0042 276.0483 0001288 274.9796  85.0899 15.02549456134431
STARLINK-6258           
1 56413U 23061AR  25284.03462099  .00000805  00000+0  74633-4 0  9994
2 56413  43.0037 277.5636 0001213 261.9846  98.0858 15.02530977134394
STARLINK-5136           
1 56414U 23061AS  25284.28724217 -.00000801  00000+0 -44304-4 0  9995
2 56414  43.0013 276.0175 0000796 264.0851  95.9901 15.02515359134433
STARLINK-6260           
1 56416U 23061AU  25284.00503005 -.00000418  00000+0 -15893-4 0  9992
2 56416  43.0014 265.1961 0000636 277.9069  82.1701 15.02542445134538
STARLINK-6261           
1 56417U 23061AV  25284.28832666 -.00000277  00000+0 -54222-5 0  9994
2 56417  43.0037 276.0272 0001292 268.5398  91.5296 15.02528558134431
STARLINK-5356           
1 56418U 23061AW  25283.99170760  .00001426  00000+0  12059-3 0  9997
2 56418  43.0039 265.0935 0001041 273.5243  86.5480 15.02538376134534
STARLINK-5350           
1 56419U 23061AX  25284.28499300  .00000626  00000+0  61430-4 0  9994
2 56419  43.0041 276.0029 0001105 264.5695  95.5021 15.02532100134435
STARLINK-6272           
1 56420U 23061AY  25284.25429237  .00000237  00000+0  32618-4 0  9999
2 56420  43.0030 263.6222 0001355 272.7326  87.3361 15.02533808134578
