[{"OBJECT_NAME":"STARLINK-6287","OBJECT_ID":"2023-061AG","EPOCH":"2025-10-11T05:57:48.835296","MEAN_MOTION":15.02536036,"ECCENTRICITY":0.00012322,"INCLINATION":43.0042,"RA_OF_ASC_NODE":276.5909,"ARG_OF_PERICENTER":264.0306,"MEAN_ANOMALY":96.0396,"EPHEMERIS_TYPE":0,"CLASSIFICATION_TYPE":"U","NORAD_CAT_ID":56404,"ELEMENT_SET_NO":999,"REV_AT_EPOCH":13442,"BSTAR":0.00010623139,"MEAN_MOTION_DOT":1.232e-5,"MEAN_MOTION_DDOT":0},{"OBJECT_NAME":"STARLINK-6285","OBJECT_ID":"2023-061AH","EPOCH":"2025-10-11T06:05:48.213600","MEAN_MOTION":15.02536406,"ECCENTRICITY":0.00012261,"INCLINATION":43.0048,"RA_OF_ASC_NODE":276.6348,"ARG_OF_PERICENTER":264.0482,"MEAN_ANOMALY":96.022,"EPHEMERIS_TYPE":0,"CLASSIFICATION_TYPE":"U","NORAD_CAT_ID":56405,"ELEMENT_SET_NO":999,"REV_AT_EPOCH":13442,"BSTAR":7.3930332e-5,"MEAN_MOTION_DOT":7.95e-6,"MEAN_MOTION_DDOT":0},{"OBJECT_NAME":"STARLINK-6283","OBJECT_ID":"2023-061AJ","EPOCH":"2025-10-11T00:57:50.892768","MEAN_MOTION":15.02535779,"ECCENTRICITY":0.00010003,"INCLINATION":43.0035,"RA_OF_ASC_NODE":277.6055,"ARG_OF_PERICENTER":274.632,"MEAN_ANOMALY":85.4408,"EPHEMERIS_TYPE":0,"CLASSIFICATION_TYPE":"U","NORAD_CAT_ID":56406,"ELEMENT_SET_NO":999,"REV_AT_EPOCH":13439,"BSTAR":3.0299318e-5,"MEAN_MOTION_DOT":2.06e-6,"MEAN_MOTION_DDOT":0},{"OBJECT_NAME":"STARLINK-6282","OBJECT_ID":"2023-061AK","EPOCH":"2025-10-11T06:01:00.508512","MEAN_MOTION":15.02537921,"ECCENTRICITY":0.0001294,"INCLINATION":43.0039,"RA_OF_ASC_NODE":276.6078,"ARG_OF_PERICENTER":272.4669,"MEAN_ANOMALY":87.6026,"EPHEMERIS_TYPE":0,"CLASSIFICATION_TYPE":"U","NORAD_CAT_ID":56407,"ELEMENT_SET_NO":999,"REV_AT_EPOCH":13442,"BSTAR":0.00015414338,"MEAN_MOTION_DOT":1.879e-5,"MEAN_MOTION_DDOT":0},{"OBJECT_NAME":"STARLINK-6289","OBJECT_ID":"2023-061AL","EPOCH":"2025-10-11T00:46:39.430848","MEAN_MOTION":15.02534766,"ECCENTRICITY":0.00011292,"INCLINATION":43.0036,"RA_OF_ASC_NODE":277.5395,"ARG_OF_PERICENTER":271.0962,"MEAN_ANOMALY":88.9751,"EPHEMERIS_TYPE":0,"CLASSIFICATION_TYPE":"U","NORAD_CAT_ID":56408,"ELEMENT_SET_NO":999,"REV_AT_EPOCH":13439,"BSTAR":1.250967e-5,"MEAN_MOTION_DOT":-3.5e-7,"MEAN_MOTION_DDOT":0},{"OBJECT_NAME":"STARLINK-6241","OBJECT_ID":"2023-061AM","EPOCH":"2025-10-11T05:53:00.976416","MEAN_MOTION":15.0252944,"ECCENTRICITY":0.00014443,"INCLINATION":43.0053,"RA_OF_ASC_NODE":276.5698,"ARG_OF_PERICENTER":284.2038,"MEAN_ANOMALY":75.8643,"EPHEMERIS_TYPE":0,"CLASSIFICATION_TYPE":"U","NORAD_CAT_ID":56409,"ELEMENT_SET_NO":999,"REV_AT_EPOCH":13442,"BSTAR":-4.8865543e-5,"MEAN_MOTION_DOT":-8.64e-6,"MEAN_MOTION_DDOT":0},{"OBJECT_NAME":"STARLINK-6281","OBJECT_ID":"2023-061AN","EPOCH":"2025-10-11T00:45:03.422304","MEAN_MOTION":15.02538375,"ECCENTRICITY":9.38e-5,"INCLINATION":43.0041,"RA_OF_ASC_NODE":277.5401,"ARG_OF_PERICENTER":268.2317,"MEAN_ANOMALY":91.8418,"EPHEMERIS_TYPE":0,"CLASSIFICATION_TYPE":"U","NORAD_CAT_ID":56410,"ELEMENT_SET_NO":999,"REV_AT_EPOCH":13439,"BSTAR":5.2142542e-5,"MEAN_MOTION_DOT":5.01e-6,"MEAN_MOTION_DDOT":0},{"OBJECT_NAME":"STARLINK-6279","OBJECT_ID":"2023-061AP","EPOCH":"2025-10-11T01:02:38.207328","MEAN_MOTION":15.02535549,"ECCENTRICITY":0.0001246,"INCLINATION":43.0036,"RA_OF_ASC_NODE":277.6317,"ARG_OF_PERICENTER":275.7326,"MEAN_ANOMALY":84.3374,"EPHEMERIS_TYPE":0,"CLASSIFICATION_TYPE":"U","NORAD_CAT_ID":56411,"ELEMENT_SET_NO":999,"REV_AT_EPOCH":13439,"BSTAR":0.0001146589,"MEAN_MOTION_DOT":1.346e-5,"MEAN_MOTION_DDOT":0},{"OBJECT_NAME":"STARLINK-6278","OBJECT_ID":"2023-061AQ","EPOCH":"2025-10-11T06:59:57.578496","MEAN_MOTION":15.02549456,"ECCENTRICITY":0.00012885,"INCLINATION":43.0042,"RA_OF_ASC_NODE":276.0483,"ARG_OF_PERICENTER":274.9796,"MEAN_ANOMALY":85.0899,"EPHEMERIS_TYPE":0,"CLASSIFICATION_TYPE":"U","NORAD_CAT_ID":56412,"ELEMENT_SET_NO":999,"REV_AT_EPOCH":13443,"BSTAR":0.00021734851,"MEAN_MOTION_DOT":2.735e-5,"MEAN_MOTION_DDOT":0},{"OBJECT_NAME":"STARLINK-6258","OBJECT_ID":"2023-061AR","EPOCH":"2025-10-11T00:49:51.253536","MEAN_MOTION":15.02530977,"ECCENTRICITY":0.00012138,"INCLINATION":43.0037,"RA_OF_ASC_NODE":277.5636,"ARG_OF_PERICENTER":261.9846,"MEAN_ANOMALY":98.0858,"EPHEMERIS_TYPE":0,"CLASSIFICATION_TYPE":"U","NORAD_CAT_ID":56413,"ELEMENT_SET_NO":999,"REV_AT_EPOCH":13439,"BSTAR":7.4633319e-5,"MEAN_MOTION_DOT":8.05e-6,"MEAN_MOTION_DDOT":0},{"OBJECT_NAME":"STARLINK-5136","OBJECT_ID":"2023-061AS","EPOCH":"2025-10-11T06:53:37.723488","MEAN_MOTION":15.02515359,"ECCENTRICITY":7.961e-5,"INCLINATION":43.0013,"RA_OF_ASC_NODE":276.0175,"ARG_OF_PERICENTER":264.0851,"MEAN_ANOMALY":95.9901,"EPHEMERIS_TYPE":0,"CLASSIFICATION_TYPE":"U","NORAD_CAT_ID":56414,"ELEMENT_SET_NO":999,"REV_AT_EPOCH":13443,"BSTAR":-4.4304097e-5,"MEAN_MOTION_DOT":-8.01e-6,"MEAN_MOTION_DDOT":0},{"OBJECT_NAME":"STARLINK-6260","OBJECT_ID":"2023-061AU","EPOCH":"2025-10-11T00:07:14.596320","MEAN_MOTION":15.02542445,"ECCENTRICITY":6.364e-5,"INCLINATION":43.0014,"RA_OF_ASC_NODE":265.1961,"ARG_OF_PERICENTER":277.9069,"MEAN_ANOMALY":82.1701,"EPHEMERIS_TYPE":0,"CLASSIFICATION_TYPE":"U","NORAD_CAT_ID":56416,"ELEMENT_SET_NO":999,"REV_AT_EPOCH":13453,"BSTAR":-1.5892988e-5,"MEAN_MOTION_DOT":-4.18e-6,"MEAN_MOTION_DDOT":0},{"OBJECT_NAME":"STARLINK-6261","OBJECT_ID":"2023-061AV","EPOCH":"2025-10-11T06:55:11.423424","MEAN_MOTION":15.02528558,"ECCENTRICITY":0.00012922,"INCLINATION":43.0037,"RA_OF_ASC_NODE":276.0272,"ARG_OF_PERICENTER":268.5398,"MEAN_ANOMALY":91.5296,"EPHEMERIS_TYPE":0,"CLASSIFICATION_TYPE":"U","NORAD_CAT_ID":56417,"ELEMENT_SET_NO":999,"REV_AT_EPOCH":13443,"BSTAR":-5.422213e-6,"MEAN_MOTION_DOT":-2.77e-6,"MEAN_MOTION_DDOT":0},{"OBJECT_NAME":"STARLINK-5356","OBJECT_ID":"2023-061AW","EPOCH":"2025-10-10T23:48:03.536640","MEAN_MOTION":15.02538376,"ECCENTRICITY":0.0001041,"INCLINATION":43.0039,"RA_OF_ASC_NODE":265.0935,"ARG_OF_PERICENTER":273.5243,"MEAN_ANOMALY":86.548,"EPHEMERIS_TYPE":0,"CLASSIFICATION_TYPE":"U","NORAD_CAT_ID":56418,"ELEMENT_SET_NO":999,"REV_AT_EPOCH":13453,"BSTAR":0.00012059,"MEAN_MOTION_DOT":1.426e-5,"MEAN_MOTION_DDOT":0},{"OBJECT_NAME":"STARLINK-5350","OBJECT_ID":"2023-061AX","EPOCH":"2025-10-11T06:50:23.395200","MEAN_MOTION":15.025321,"ECCENTRICITY":0.00011059,"INCLINATION":43.0041,"RA_OF_ASC_NODE":276.0029,"ARG_OF_PERICENTER":264.5695,"MEAN_ANOMALY":95.5021,"EPHEMERIS_TYPE":0,"CLASSIFICATION_TYPE":"U","NORAD_CAT_ID":56419,"ELEMENT_SET_NO":999,"REV_AT_EPOCH":13443,"BSTAR":6.143035e-5,"MEAN_MOTION_DOT":6.26e-6,"MEAN_MOTION_DDOT":0},{"OBJECT_NAME":"STARLINK-6272","OBJECT_ID":"2023-061AY","EPOCH":"2025-10-11T06:06:10.860768","MEAN_MOTION":15.02533808,"ECCENTRICITY":0.00013553,"INCLINATION":43.003,"RA_OF_ASC_NODE":263.6222,"ARG_OF_PERICENTER":272.7326,"MEAN_ANOMALY":87.3361,"EPHEMERIS_TYPE":0,"CLASSIFICATION_TYPE":"U","NORAD_CAT_ID":56420,"ELEMENT_SET_NO":999,"REV_AT_EPOCH":13457,"BSTAR":3.2617964e-5,"MEAN_MOTION_DOT":2.37e-6,"MEAN_MOTION_DDOT":0}]
